IRIDIUM 63              
1 25286U 98021B   25251.90400284  .00000478  00000+0  15583-3 0  9998
2 25286  86.3959  46.9828 0002147  85.4613 274.6829 14.36605824435866
IRIDIUM 69              
1 25319U 98026A   25251.93728227  .00000462  00000+0  13737-3 0  9995
2 25319  86.3932  60.0013 0004449  99.2753 260.8950 14.41039787435128
IRIDIUM 71              
1 25320U 98026B   25251.93335715  .00000466  00000+0  13821-3 0  9991
2 25320  86.3939  54.6805 0003282 129.4816 230.6675 14.41221130435657
IRIDIUM 73              
1 25344U 98032C   25251.87648162  .00000701  00000+0  16918-3 0  9992
2 25344  86.4461  11.2661 0002832  87.0635 273.0895 14.51808271442708
IRIDIUM 82              
1 25467U 98051A   25251.91817550  .00024838  00000+0  63386-3 0  9991
2 25467  86.3600  68.4241 0077338 339.1072  20.7023 15.36262376436791
